NORAD_CAT_ID,OBJECT_NAME,OBJECT_TYPE,EPOCH,MEAN_MOTION,ECCENTRICITY,INCLINATION,RA_OF_ASC_NODE,ARG_OF_PERICENTER,MEAN_ANOMALY,BSTAR,MEAN_MOTION_DOT,MEAN_MOTION_DDOT,TLE_LINE0,TLE_LINE1,TLE_LINE2,SEMIMAJOR_AXIS,PERIOD,APOGEE,PERIGEE,DECAYED
51124.0,STARLINK-3389,PAYLOAD,2023-01-19 11:16:35,15.08865766,0.0001684,53.2145,40.2253,65.4951,294.6216,0.0020765999999999,0.00032939,0.0,0 STARLINK-3389,1 51124U 22005W   23019.46985084  .00032939  00000-0  20766-2 0  9990,2 51124  53.2145  40.2253 0001684  65.4951 294.6216 15.08865766 56968,6917.802,95.436,540.832,538.502,0.0
51124.0,STARLINK-3389,PAYLOAD,2023-01-19 14:27:21,15.08865635,0.0001716,53.2137,39.6287,63.302,296.8148,0.0010849,0.00017032,0.0,0 STARLINK-3389,1 51124U 22005W   23019.60232960  .00017032  00000-0  10849-2 0  9992,2 51124  53.2137  39.6287 0001716  63.3020 296.8148 15.08865635 55870,6917.802,95.436,540.854,538.48,0.0
51124.0,STARLINK-3389,PAYLOAD,2023-01-20 01:35:02,15.08857547,0.0001617,53.2162,37.5504,74.4083,285.7087,0.00087717,0.00013706,0.0,0 STARLINK-3389,1 51124U 22005W   23020.06600572  .00013706  00000-0  87717-3 0  9995,2 51124  53.2162  37.5504 0001617  74.4083 285.7087 15.08857547 57053,6917.826999999999,95.436,540.81,538.573,0.0
51124.0,STARLINK-3389,PAYLOAD,2023-01-20 07:56:35,15.08869598,0.0001802,53.2148,36.3589,68.7577,291.3608,0.00074634,0.0001161999999999,0.0,0 STARLINK-3389,1 51124U 22005W   23020.33096100  .00011620  00000-0  74634-3 0  9998,2 51124  53.2148  36.3589 0001802  68.7577 291.3608 15.08869598 55988,6917.79,95.436,540.9019999999999,538.408,0.0
51124.0,STARLINK-3389,PAYLOAD,2023-01-20 17:28:53,15.08865356,0.000148,53.2159,34.577,72.1594,287.956,0.00052333,8.056e-05,0.0,0 STARLINK-3389,1 51124U 22005W   23020.72839640  .00008056  00000-0  52333-3 0  9996,2 51124  53.2159  34.5770 0001480  72.1594 287.9560 15.08865356 57159,6917.803000000001,95.436,540.692,538.644,0.0
51124.0,STARLINK-3389,PAYLOAD,2023-01-20 22:15:02,15.08858517,0.0001913,53.2125,33.6822,90.7433,269.3779,0.00014373,2.001e-05,0.0,0 STARLINK-3389,1 51124U 22005W   23020.92711479  .00002001  00000-0  14373-3 0  9993,2 51124  53.2125  33.6822 0001913  90.7433 269.3779 15.08858517 57189,6917.8240000000005,95.436,541.012,538.365,0.0
51124.0,STARLINK-3389,PAYLOAD,2023-01-22 09:13:32,15.08832622,0.0001375,53.2151,27.1448,94.7735,265.3414,-0.00019453,-3.382e-05,0.0,0 STARLINK-3389,1 51124U 22005W   23022.38440043 -.00003382  00000-0 -19453-3 0  9990,2 51124  53.2151  27.1448 0001375  94.7735 265.3414 15.08832622 57407,6917.903,95.438,540.719,538.817,0.0
51124.0,STARLINK-3389,PAYLOAD,2023-01-23 02:42:48,15.08820701,0.0001526,53.2143,23.8698,89.1747,270.942,-0.00016327,-2.884e-05,0.0,0 STARLINK-3389,1 51124U 22005W   23023.11305557 -.00002884  00000-0 -16327-3 0  9995,2 51124  53.2143  23.8698 0001526  89.1747 270.9420 15.08820701 57513,6917.939,95.439,540.86,538.749,0.0
51124.0,STARLINK-3389,PAYLOAD,2023-01-23 18:36:39,15.08829681,0.0001177,53.2146,20.8959,79.0113,281.1012,0.00023335,3.427e-05,0.0,0 STARLINK-3389,1 51124U 22005W   23023.77545977  .00003427  00000-0  23335-3 0  9998,2 51124  53.2146  20.8959 0001177  79.0113 281.1012 15.08829681 57618,6917.911999999999,95.438,540.591,538.9630000000001,0.0
51124.0,STARLINK-3389,PAYLOAD,2023-01-24 08:55:07,15.08862427,0.0001274999999999,53.2141,18.2185,91.4096,268.7042,0.0014187999999999,0.00022378,0.0,0 STARLINK-3389,1 51124U 22005W   23024.37161881  .00022378  00000-0  14188-2 0  9994,2 51124  53.2141  18.2185 0001275  91.4096 268.7042 15.08862427 57701,6917.812,95.436,540.559,538.795,0.0
51124.0,STARLINK-3389,PAYLOAD,2023-01-24 18:27:26,15.08843075,0.0001147,53.214,16.433,120.6859,239.4246,0.00029938,4.48e-05,0.0,0 STARLINK-3389,1 51124U 22005W   23024.76905771  .00004480  00000-0  29938-3 0  9995,2 51124  53.2140  16.4330 0001147 120.6859 239.4246 15.08843075 57767,6917.871,95.437,540.529,538.943,0.0
51124.0,STARLINK-3389,PAYLOAD,2023-01-25 08:45:54,15.08854687,0.0001179,53.2144,13.7567,117.7021,242.409,0.00051995,8e-05,0.0,0 STARLINK-3389,1 51124U 22005W   23025.36521580  .00008000  00000-0  51995-3 0  9994,2 51124  53.2144  13.7567 0001179 117.7021 242.4090 15.08854687 56745,6917.835,95.437,540.516,538.885,0.0
51124.0,STARLINK-3389,PAYLOAD,2023-01-25 18:18:13,15.08842282,0.0001077,53.2148,11.9727,108.6991,251.4118,0.00018809,2.707e-05,0.0,0 STARLINK-3389,1 51124U 22005W   23025.76265871  .00002707  00000-0  18809-3 0  9991,2 51124  53.2148  11.9727 0001077 108.6991 251.4118 15.08842282 57918,6917.8730000000005,95.437,540.4830000000001,538.993,0.0
51124.0,STARLINK-3389,PAYLOAD,2023-01-26 08:36:42,15.08850884,0.0001144,53.2147,9.2969,88.3663,271.746,0.00086361,0.00013487,0.0,0 STARLINK-3389,1 51124U 22005W   23026.35882104  .00013487  00000-0  86361-3 0  9996,2 51124  53.2147   9.2969 0001144  88.3663 271.7460 15.08850884 56898,6917.847,95.437,540.504,538.9209999999999,0.0
51124.0,STARLINK-3389,PAYLOAD,2023-01-27 02:05:56,15.0884598,0.0001213,53.2153,6.0239,90.2881,269.825,0.00044213,6.757e-05,0.0,0 STARLINK-3389,1 51124U 22005W   23027.08746159  .00006757  00000-0  44213-3 0  9998,2 51124  53.2153   6.0239 0001213  90.2881 269.8250 15.08845980 58114,6917.861999999999,95.437,540.566,538.888,0.0
51124.0,STARLINK-3389,PAYLOAD,2023-01-27 08:27:29,15.08847624,0.0001183,53.2158,4.8344,89.1112,271.0015,0.00040608,6.182e-05,0.0,0 STARLINK-3389,1 51124U 22005W   23027.35242034  .00006182  00000-0  40608-3 0  9997,2 51124  53.2158   4.8344 0001183  89.1112 271.0015 15.08847624 57044,6917.857,95.437,540.54,538.904,0.0
51124.0,STARLINK-3389,PAYLOAD,2023-01-28 01:56:43,15.08839461,0.000143,53.2141,1.5613,128.6306,231.4815,0.00010539,1.39e-05,0.0,0 STARLINK-3389,1 51124U 22005W   23028.08106162  .00001390  00000-0  10539-3 0  9995,2 51124  53.2141   1.5613 0001430 128.6306 231.4815 15.08839461 58261,6917.882,95.438,540.736,538.758,0.0
51124.0,STARLINK-3389,PAYLOAD,2023-01-28 08:18:16,15.08842922,8.53e-05,53.2152,0.3754,83.3101,276.7988,0.0002557,3.784e-05,0.0,0 STARLINK-3389,1 51124U 22005W   23028.34602249  .00003784  00000-0  25570-3 0  9991,2 51124  53.2152   0.3754 0000853  83.3101 276.7988 15.08842922 57194,6917.871,95.437,540.327,539.146,0.0
51124.0,STARLINK-3389,PAYLOAD,2023-01-29 06:33:40,15.08847906,8.23e-05,53.2153,356.2125,83.0613,277.0473,0.0002079,3.023e-05,0.0,0 STARLINK-3389,1 51124U 22005W   23029.27338051  .00003023  00000-0  20790-3 0  9996,2 51124  53.2153 356.2125 0000823  83.0613 277.0473 15.08847906 58441,6917.856,95.437,540.291,539.152,0.0
51124.0,STARLINK-3389,PAYLOAD,2023-01-29 20:52:08,15.08839258,7.92e-05,53.2145,353.5367,88.2305,271.8778,0.00012277,1.667e-05,0.0,0 STARLINK-3389,1 51124U 22005W   23029.86954372  .00001667  00000-0  12277-3 0  9994,2 51124  53.2145 353.5367 0000792  88.2305 271.8778 15.08839258 57428,6917.883,95.438,540.296,539.2,0.0
51124.0,STARLINK-3389,PAYLOAD,2023-01-30 06:24:27,15.08846821,8.75e-05,53.2152,351.7532,80.7478,279.3614,0.0001612,2.279e-05,0.0,0 STARLINK-3389,1 51124U 22005W   23030.26698020  .00002279  00000-0  16120-3 0  9996,2 51124  53.2152 351.7532 0000875  80.7478 279.3614 15.08846821 58595,6917.86,95.437,540.33,539.119,0.0
51124.0,STARLINK-3389,PAYLOAD,2023-01-30 22:18:18,15.08838417,0.0001093,53.2158,348.7795,76.6248,283.4866,-3.3849e-05,-8.26e-06,0.0,0 STARLINK-3389,1 51124U 22005W   23030.92938454 -.00000826  00000-0 -33849-4 0  9993,2 51124  53.2158 348.7795 0001093  76.6248 283.4866 15.08838417 57585,6917.885,95.438,540.506,538.994,0.0
51124.0,STARLINK-3389,PAYLOAD,2023-01-31 03:04:28,15.08844102,0.0001134,53.2161,347.8872,74.8292,285.2825,5.6084e-05,6.05e-06,0.0,0 STARLINK-3389,1 51124U 22005W   23031.12810334  .00000605  00000-0  56084-4 0  9991,2 51124  53.2161 347.8872 0001134  74.8292 285.2825 15.08844102 58720,6917.868,95.437,540.517,538.948,0.0
51124.0,STARLINK-3389,PAYLOAD,2023-01-31 06:15:14,15.08845944,0.0001129,53.2158,347.2921,73.8394,286.2723,8.4216e-05,1.053e-05,0.0,0 STARLINK-3389,1 51124U 22005W   23031.26058228  .00001053  00000-0  84216-4 0  9998,2 51124  53.2158 347.2921 0001129  73.8394 286.2723 15.08845944 57633,6917.862,95.437,540.508,538.946,0.0
51124.0,STARLINK-3389,PAYLOAD,2023-01-31 20:33:42,15.08840888,0.0001035,53.2149,344.6147,89.6204,270.4907,8.4003e-05,1.049e-05,0.0,0 STARLINK-3389,1 51124U 22005W   23031.85674507  .00001049  00000-0  84003-4 0  9996,2 51124  53.2149 344.6147 0001035  89.6204 270.4907 15.08840888 57726,6917.878,95.437,540.459,539.027,0.0
51124.0,STARLINK-3389,PAYLOAD,2023-02-01 06:06:01,15.08849532,0.0001029,53.2143,342.8298,93.3693,266.7417,0.00020473,2.973e-05,0.0,0 STARLINK-3389,1 51124U 22005W   23032.25418010  .00002973  00000-0  20473-3 0  9993,2 51124  53.2143 342.8298 0001029  93.3693 266.7417 15.08849532 58892,6917.851,95.437,540.428,539.004,0.0
51124.0,STARLINK-3389,PAYLOAD,2023-02-02 02:46:02,15.08846165,9.76e-05,53.2142,338.9644,90.2952,269.8152,0.00017037,2.425e-05,0.0,0 STARLINK-3389,1 51124U 22005W   23033.11530264  .00002425  00000-0  17037-3 0  9999,2 51124  53.2142 338.9644 0000976  90.2952 269.8152 15.08846165 59021,6917.862,95.437,540.402,539.051,0.0
51124.0,STARLINK-3389,PAYLOAD,2023-02-02 05:56:48,15.08848463,0.0001105,53.2139,338.3687,92.2348,267.8771,0.0002562,3.793e-05,0.0,0 STARLINK-3389,1 51124U 22005W   23033.24778184  .00003793  00000-0  25620-3 0  9994,2 51124  53.2139 338.3687 0001105  92.2348 267.8771 15.08848463 57930,6917.855,95.437,540.484,538.955,0.0
51124.0,STARLINK-3389,PAYLOAD,2023-02-03 05:47:34,15.08854025,0.0001068,53.2142,333.9087,87.3859,272.7256,0.00019576,2.83e-05,0.0,0 STARLINK-3389,1 51124U 22005W   23034.24137579  .00002830  00000-0  19576-3 0  9996,2 51124  53.2142 333.9087 0001068  87.3859 272.7256 15.08854025 59193,6917.838,95.437,540.441,538.964,0.0
